{"epoch":1784799577,"count":18318,"objects":[{"id":"46984","name":"S6 MICHAEL FREILICH","type":"PAYLOAD","l1":"1 46984U 20086A   26203.84425964 -.00000062  00000-0 -56716-5 0  9992","l2":"2 46984  66.0410  60.9926 0007778 269.5701  90.4423 12.80930270264894"},{"id":"66514","name":"SENTINEL-6B","type":"PAYLOAD","l1":"1 66514U 25264A   26203.84460752 -.00000060  00000-0  31849-5 0  9997","l2":"2 66514  66.0410  61.1180 0007831 268.4456  91.5662 12.80930304 31735"}]}