{"fetched_at":"2026-07-23T07:06:01.086Z","source":"https://celestrak.org/NORAD/elements/gp.php?NAME=SENTINEL&FORMAT=JSON","constellation":"sentinel-6","records":[{"OBJECT_NAME":"SENTINEL-6A","OBJECT_ID":"2020-086A","EPOCH":"2026-07-22T20:15:44.032896","CLASSIFICATION_TYPE":"U","MEAN_MOTION":12.8093027,"ECCENTRICITY":0.00077782,"INCLINATION":66.041,"RA_OF_ASC_NODE":60.9926,"ARG_OF_PERICENTER":269.5701,"MEAN_ANOMALY":90.4423,"EPHEMERIS_TYPE":0,"NORAD_CAT_ID":46984,"ELEMENT_SET_NO":999,"REV_AT_EPOCH":26489,"BSTAR":-0.000005671586,"MEAN_MOTION_DOT":-6.2e-7,"MEAN_MOTION_DDOT":0},{"OBJECT_NAME":"SENTINEL-6B","OBJECT_ID":"2025-264A","EPOCH":"2026-07-22T20:16:14.089728","CLASSIFICATION_TYPE":"U","MEAN_MOTION":12.80930304,"ECCENTRICITY":0.00078305,"INCLINATION":66.041,"RA_OF_ASC_NODE":61.118,"ARG_OF_PERICENTER":268.4456,"MEAN_ANOMALY":91.5662,"EPHEMERIS_TYPE":0,"NORAD_CAT_ID":66514,"ELEMENT_SET_NO":999,"REV_AT_EPOCH":3173,"BSTAR":0.000003184876,"MEAN_MOTION_DOT":-6e-7,"MEAN_MOTION_DDOT":0}]}
